{
  "type": "FeatureCollection",
  "features": [
    {
      "type": "Feature",
      "properties": {
        "norad_id": 36585,
        "name": "GPS BIIF-1  (PRN 25)",
        "group": "gnss",
        "lat": -53.12991926565144,
        "lon": 109.6465241490173,
        "alt_km": 20511.577441539393,
        "timestamp": "2025-12-07T20:38:14.308628+00:00",
        "meta_object_name": "GPS BIIF-1  (PRN 25)",
        "meta_object_id": "2010-022A",
        "meta_epoch": "2025-12-07T05:49:32.737728",
        "meta_mean_motion": 2.00552848,
        "meta_eccentricity": 0.01258847,
        "meta_inclination": 54.3011,
        "meta_ra_of_asc_node": 216.2957,
        "meta_arg_of_pericenter": 65.0144,
        "meta_mean_anomaly": 109.9417,
        "meta_ephemeris_type": 0,
        "meta_classification_type": "U",
        "meta_norad_cat_id": 36585,
        "meta_element_set_no": 999,
        "meta_rev_at_epoch": 11374,
        "meta_bstar": 0,
        "meta_mean_motion_dot": 3.7e-07,
        "meta_mean_motion_ddot": 0,
        "tle_line1": "1 36585U 10022A   25341.24274002  .00000037  00000+0  00000+0 0  9996",
        "tle_line2": "2 36585  54.3011 216.2957 0125884  65.0144 109.9417  2.00552848113744"
      },
      "geometry": {
        "type": "Point",
        "coordinates": [
          109.6465241490173,
          -53.12991926565144
        ]
      }
    },
    {
      "type": "Feature",
      "properties": {
        "norad_id": 36828,
        "name": "BEIDOU-2 IGSO-1 (C06)",
        "group": "gnss",
        "lat": -23.853694301311382,
        "lon": 146.10731114315107,
        "alt_km": 35875.76306254049,
        "timestamp": "2025-12-07T20:38:14.308639+00:00",
        "meta_object_name": "BEIDOU-2 IGSO-1 (C06)",
        "meta_object_id": "2010-036A",
        "meta_epoch": "2025-12-06T22:34:51.744288",
        "meta_mean_motion": 1.00277718,
        "meta_eccentricity": 0.00512366,
        "meta_inclination": 54.287,
        "meta_ra_of_asc_node": 164.7002,
        "meta_arg_of_pericenter": 215.8375,
        "meta_mean_anomaly": 141.9649,
        "meta_ephemeris_type": 0,
        "meta_classification_type": "U",
        "meta_norad_cat_id": 36828,
        "meta_element_set_no": 999,
        "meta_rev_at_epoch": 5616,
        "meta_bstar": 0,
        "meta_mean_motion_dot": -6.2e-07,
        "meta_mean_motion_ddot": 0,
        "tle_line1": "1 36828U 10036A   25340.94087667 -.00000062  00000+0  00000+0 0  9995",
        "tle_line2": "2 36828  54.2870 164.7002 0051236 215.8375 141.9649  1.00277718 56168"
      },
      "geometry": {
        "type": "Point",
        "coordinates": [
          146.10731114315107,
          -23.853694301311382
        ]
      }
    },
    {
      "type": "Feature",
      "properties": {
        "norad_id": 37210,
        "name": "BEIDOU-2 G4 (C04)",
        "group": "gnss",
        "lat": 2.8320188481160478,
        "lon": -173.57727583534924,
        "alt_km": 35772.60965957686,
        "timestamp": "2025-12-07T20:38:14.308651+00:00",
        "meta_object_name": "BEIDOU-2 G4 (C04)",
        "meta_object_id": "2010-057A",
        "meta_epoch": "2025-12-07T05:50:07.288224",
        "meta_mean_motion": 1.00271393,
        "meta_eccentricity": 0.00109396,
        "meta_inclination": 3.1705,
        "meta_ra_of_asc_node": 69.9516,
        "meta_arg_of_pericenter": 189.9186,
        "meta_mean_anomaly": 64.0033,
        "meta_ephemeris_type": 0,
        "meta_classification_type": "U",
        "meta_norad_cat_id": 37210,
        "meta_element_set_no": 999,
        "meta_rev_at_epoch": 5536,
        "meta_bstar": 0,
        "meta_mean_motion_dot": -1.08e-06,
        "meta_mean_motion_ddot": 0,
        "tle_line1": "1 37210U 10057A   25341.24313991 -.00000108  00000+0  00000+0 0  9991",
        "tle_line2": "2 37210   3.1705  69.9516 0010939 189.9186  64.0033  1.00271393 55362"
      },
      "geometry": {
        "type": "Point",
        "coordinates": [
          -173.57727583534924,
          2.8320188481160478
        ]
      }
    },
    {
      "type": "Feature",
      "properties": {
        "norad_id": 37256,
        "name": "BEIDOU-2 IGSO-2 (C07)",
        "group": "gnss",
        "lat": -28.291690069785574,
        "lon": 123.24240722180141,
        "alt_km": 35578.88919980572,
        "timestamp": "2025-12-07T20:38:14.308663+00:00",
        "meta_object_name": "BEIDOU-2 IGSO-2 (C07)",
        "meta_object_id": "2010-068A",
        "meta_epoch": "2025-12-03T17:22:36.030432",
        "meta_mean_motion": 1.0028871,
        "meta_eccentricity": 0.00492335,
        "meta_inclination": 47.9043,
        "meta_ra_of_asc_node": 274.2613,
        "meta_arg_of_pericenter": 216.1442,
        "meta_mean_anomaly": 310.2369,
        "meta_ephemeris_type": 0,
        "meta_classification_type": "U",
        "meta_norad_cat_id": 37256,
        "meta_element_set_no": 999,
        "meta_rev_at_epoch": 5483,
        "meta_bstar": 0,
        "meta_mean_motion_dot": -2.25e-06,
        "meta_mean_motion_ddot": 0,
        "tle_line1": "1 37256U 10068A   25337.72402813 -.00000225  00000+0  00000+0 0  9993",
        "tle_line2": "2 37256  47.9043 274.2613 0049233 216.1442 310.2369  1.00288710 54839"
      },
      "geometry": {
        "type": "Point",
        "coordinates": [
          123.24240722180141,
          -28.291690069785574
        ]
      }
    },
    {
      "type": "Feature",
      "properties": {
        "norad_id": 37384,
        "name": "BEIDOU-2 IGSO-3 (C08)",
        "group": "gnss",
        "lat": 62.11203889593711,
        "lon": 135.5177587985953,
        "alt_km": 35792.98891164852,
        "timestamp": "2025-12-07T20:38:14.308675+00:00",
        "meta_object_name": "BEIDOU-2 IGSO-3 (C08)",
        "meta_object_id": "2011-013A",
        "meta_epoch": "2025-12-03T14:52:09.520896",
        "meta_mean_motion": 1.00272128,
        "meta_eccentricity": 0.00353922,
        "meta_inclination": 62.1308,
        "meta_ra_of_asc_node": 42.005,
        "meta_arg_of_pericenter": 186.5359,
        "meta_mean_anomaly": 174.9093,
        "meta_ephemeris_type": 0,
        "meta_classification_type": "U",
        "meta_norad_cat_id": 37384,
        "meta_element_set_no": 999,
        "meta_rev_at_epoch": 5370,
        "meta_bstar": 0,
        "meta_mean_motion_dot": -1.99e-06,
        "meta_mean_motion_ddot": 0,
        "tle_line1": "1 37384U 11013A   25337.61955464 -.00000199  00000+0  00000+0 0  9999",
        "tle_line2": "2 37384  62.1308  42.0050 0035392 186.5359 174.9093  1.00272128 53708"
      },
      "geometry": {
        "type": "Point",
        "coordinates": [
          135.5177587985953,
          62.11203889593711
        ]
      }
    },
    {
      "type": "Feature",
      "properties": {
        "norad_id": 37605,
        "name": "GSAT-8 (GAGAN/PRN 127)",
        "group": "gnss",
        "lat": -0.0532552809765358,
        "lon": 81.53760219102284,
        "alt_km": 35824.35401375224,
        "timestamp": "2025-12-07T20:38:14.308687+00:00",
        "meta_object_name": "GSAT-8 (GAGAN/PRN 127)",
        "meta_object_id": "2011-022A",
        "meta_epoch": "2025-12-07T03:37:26.813856",
        "meta_mean_motion": 1.00271888,
        "meta_eccentricity": 0.00090665,
        "meta_inclination": 1.6347,
        "meta_ra_of_asc_node": 84.2491,
        "meta_arg_of_pericenter": 180.2163,
        "meta_mean_anomaly": 281.1736,
        "meta_ephemeris_type": 0,
        "meta_classification_type": "U",
        "meta_norad_cat_id": 37605,
        "meta_element_set_no": 999,
        "meta_rev_at_epoch": 5129,
        "meta_bstar": 0,
        "meta_mean_motion_dot": 8.9e-07,
        "meta_mean_motion_ddot": 0,
        "tle_line1": "1 37605U 11022A   25341.15100479  .00000089  00000+0  00000+0 0  9994",
        "tle_line2": "2 37605   1.6347  84.2491 0009066 180.2163 281.1736  1.00271888 51294"
      },
      "geometry": {
        "type": "Point",
        "coordinates": [
          81.53760219102284,
          -0.0532552809765358
        ]
      }
    },
    {
      "type": "Feature",
      "properties": {
        "norad_id": 37763,
        "name": "BEIDOU-2 IGSO-4 (C09)",
        "group": "gnss",
        "lat": -35.178187502519236,
        "lon": 137.22908831997188,
        "alt_km": 35720.42259161839,
        "timestamp": "2025-12-07T20:38:14.308700+00:00",
        "meta_object_name": "BEIDOU-2 IGSO-4 (C09)",
        "meta_object_id": "2011-038A",
        "meta_epoch": "2025-12-01T12:32:09.960864",
        "meta_mean_motion": 1.00284074,
        "meta_eccentricity": 0.01487808,
        "meta_inclination": 54.5808,
        "meta_ra_of_asc_node": 167.4476,
        "meta_arg_of_pericenter": 230.2031,
        "meta_mean_anomaly": 315.0387,
        "meta_ephemeris_type": 0,
        "meta_classification_type": "U",
        "meta_norad_cat_id": 37763,
        "meta_element_set_no": 999,
        "meta_rev_at_epoch": 5266,
        "meta_bstar": 0,
        "meta_mean_motion_dot": 1.01e-06,
        "meta_mean_motion_ddot": 0,
        "tle_line1": "1 37763U 11038A   25335.52233751  .00000101  00000+0  00000+0 0  9995",
        "tle_line2": "2 37763  54.5808 167.4476 0148780 230.2031 315.0387  1.00284074 52664"
      },
      "geometry": {
        "type": "Point",
        "coordinates": [
          137.22908831997188,
          -35.178187502519236
        ]
      }
    }
  ]
}